[{"OBJECT_NAME":"GEESAT-3 04","OBJECT_ID":"2024-159D","EPOCH":"2026-03-09T22:19:33.498048","MEAN_MOTION":14.82863274,"ECCENTRICITY":0.00023149,"INCLINATION":49.9968,"RA_OF_ASC_NODE":93.6618,"ARG_OF_PERICENTER":46.406,"MEAN_ANOMALY":313.707,"EPHEMERIS_TYPE":0,"CLASSIFICATION_TYPE":"U","NORAD_CAT_ID":61014,"ELEMENT_SET_NO":999,"REV_AT_EPOCH":8327,"BSTAR":0.00041507261,"MEAN_MOTION_DOT":3.175e-5,"MEAN_MOTION_DDOT":0},{"OBJECT_NAME":"FENGYUN 1C DEB","OBJECT_ID":"1999-025QQ","EPOCH":"2026-03-09T13:23:45.648672","MEAN_MOTION":14.35922727,"ECCENTRICITY":0.02280151,"INCLINATION":98.3696,"RA_OF_ASC_NODE":103.4107,"ARG_OF_PERICENTER":221.8264,"MEAN_ANOMALY":301.9681,"EPHEMERIS_TYPE":0,"CLASSIFICATION_TYPE":"U","NORAD_CAT_ID":30087,"ELEMENT_SET_NO":999,"REV_AT_EPOCH":99941,"BSTAR":0.00028739308,"MEAN_MOTION_DOT":1.069e-5,"MEAN_MOTION_DDOT":0}]
